{"type":"FeatureCollection","features":[{"type":"Feature","geometry":{"type":"Point","coordinates":[5.385648,52.1546949]},"properties":{"straat":"Utrechtsestraat","nr":"25-37","postcode":"3811 LA ","plaats":"Amersfoort"}},{"type":"Feature","geometry":{"type":"Point","coordinates":[5.1145325,52.0905122]},"properties":{"straat":"Rijnkade","nr":"5","postcode":"3511 LC","plaats":"Utrecht"}},{"type":"Feature","geometry":{"type":"Point","coordinates":[5.2408198,52.085821]},"properties":{"straat":"1e Hogeweg","nr":"19","postcode":"3701 HG","plaats":"Zeist"}},{"type":"Feature","geometry":{"type":"Point","coordinates":[5.1749228,52.2248534]},"properties":{"straat":"Kerkstraat","nr":"51","postcode":"1211 CL","plaats":"Hilversum"}},{"type":"Feature","geometry":{"type":"Point","coordinates":[4.71066109,52.01399137]},"properties":{"straat":"Kleiweg 24","nr":"24","postcode":"2801 GN","plaats":"Gouda"}},{"type":"Feature","geometry":{"type":"Point","coordinates":[4.86449932,52.30157449]},"properties":{"straat":"Buitenplein","nr":"101","postcode":"1181 ZE","plaats":"Amstelveen"}},{"type":"Feature","geometry":{"type":"Point","coordinates":[4.972102,51.82970542]},"properties":{"straat":"Krijtstraat ","nr":"12","postcode":"4201 GD","plaats":"Gorinchem"}},{"type":"Feature","geometry":{"type":"Point","coordinates":[4.6642342,52.1286381]},"properties":{"straat":"Van Boetzelaerstraat ","nr":"12","postcode":"2406 BG","plaats":"Alphen aan den Rijn"}},{"type":"Feature","geometry":{"type":"Point","coordinates":[5.5563418,52.0273577]},"properties":{"straat":"Corridor ","nr":"56","postcode":"3901 AC","plaats":"Veenendaal"}},{"type":"Feature","geometry":{"type":"Point","coordinates":[5.218439,52.3694445]},"properties":{"straat":"Citadel ","nr":"16","postcode":"1315 VL","plaats":"Almere"}},{"type":"Feature","geometry":{"type":"Point","coordinates":[4.8927959,52.3675691]},"properties":{"straat":"Kalverstraat","nr":"203","postcode":"1012 XC","plaats":"Amsterdam"}},{"type":"Feature","geometry":{"type":"Point","coordinates":[4.936185,52.3993284]},"properties":{"straat":"Buikslotermeerplein","nr":"123","postcode":"1025 ET","plaats":"Amsterdam"}},{"type":"Feature","geometry":{"type":"Point","coordinates":[5.2576765,51.7764522]},"properties":{"straat":"Rijksweg A2 ","nr":"2","postcode":"5314 LJ","plaats":"Bruchem"}},{"type":"Feature","geometry":{"type":"Point","coordinates":[5.6719639,52.0447624]},"properties":{"straat":"Achterdoelen ","nr":"25","postcode":"6711 AV","plaats":" Ede"}},{"type":"Feature","geometry":{"type":"Point","coordinates":[4.6932829,52.3042789]},"properties":{"straat":"Dik Tromplein ","nr":"2","postcode":"2132 TX","plaats":"Hoofddorp"}},{"type":"Feature","geometry":{"type":"Point","coordinates":[4.4932729,52.0619912]},"properties":{"straat":"Theaterplein ","nr":"11","postcode":"2711 EK ","plaats":" Zoetermeer"}},{"type":"Feature","geometry":{"type":"Point","coordinates":[4.4903775,52.1590591]},"properties":{"straat":"Aalmarkt","nr":"22","postcode":" 2311 ED","plaats":" Leiden"}}]}